OBJECT_NAME,OBJECT_ID,EPOCH,MEAN_MOTION,ECCENTRICITY,INCLINATION,RA_OF_ASC_NODE,ARG_OF_PERICENTER,MEAN_ANOMALY,EPHEMERIS_TYPE,CLASSIFICATION_TYPE,NORAD_CAT_ID,ELEMENT_SET_NO,REV_AT_EPOCH,BSTAR,MEAN_MOTION_DOT,MEAN_MOTION_DDOT
BEIDOU-3S IGSO-1S (C31),2015-019A,2026-06-11T20:31:05.982240,1.00251573,.0038799,49.2064,295.5276,190.7165,173.6268,0,U,40549,999,4102,0,-.18E-5,0
GPS BIIF-10 (PRN 08),2015-033A,2026-06-11T05:42:32.654880,2.00556495,.0115044,53.9871,267.3319,30.2134,330.4646,0,U,40730,999,7987,0,-.28E-6,0
BEIDOU-3S M2S (C58),2015-037A,2026-06-11T10:00:18.664416,1.86232304,.00081169,54.8770,302.2455,260.6370,99.2561,0,U,40748,999,7401,0,-.66E-6,0
BEIDOU-3S M1S (C57),2015-037B,2026-06-11T14:59:59.461728,1.86254738,.00035473,54.8727,302.2256,61.2572,298.7628,0,U,40749,999,7402,0,-.67E-6,0
GSAT0205 (GALILEO 9),2015-045A,2026-05-24T07:17:44.873376,1.67409242,.00064058,54.9357,222.4171,263.0112,96.9692,0,U,40889,999,6656,0,-.14E-6,0
GSAT0206 (GALILEO 10),2015-045B,2026-06-09T19:57:39.153024,1.70473928,.00016825,54.9468,221.8077,339.7025,20.3746,0,U,40890,999,6691,0,.48E-6,0
BEIDOU-3S IGSO-2S (C56),2015-053A,2026-06-11T23:00:41.712768,1.00260751,.00655982,49.2299,258.8465,191.9937,250.0772,0,U,40938,999,3930,0,-.146E-5,0
GPS BIIF-11 (PRN 10),2015-062A,2026-06-09T07:11:53.760192,2.00566961,.01116543,56.9540,31.1152,231.1327,127.9172,0,U,41019,999,7767,0,-.64E-6,0
GSAT-15 (GAGAN/PRN 139),2015-065A,2026-06-11T22:18:51.672672,1.00270254,.00040463,0.0837,266.0754,160.3027,262.1011,0,U,41028,999,3874,0,-.241E-5,0
GSAT0209 (GALILEO 12),2015-079A,2026-06-11T04:08:57.993216,1.70473704,.0005395,55.8238,101.4269,341.0365,18.9073,0,U,41174,999,6467,0,.12E-6,0
GSAT0208 (GALILEO 11),2015-079B,2026-06-09T15:12:09.629856,1.70473549,.00048989,55.8212,101.4660,340.3551,19.5970,0,U,41175,999,6506,0,.22E-6,0
IRNSS-1E,2016-003A,2026-06-11T15:29:00.634272,1.00267652,.001795,33.2228,59.8306,179.1772,4.8789,0,U,41241,999,3802,0,-.308E-5,0
GPS BIIF-12 (PRN 32),2016-007A,2026-06-10T21:16:03.868896,2.00551975,.00960688,55.5202,89.7095,247.3778,111.5924,0,U,41328,999,7571,0,-.12E-6,0
COSMOS 2514 (751),2016-008A,2026-06-11T15:41:49.646976,2.13102569,.00110715,65.0252,313.1965,197.6277,162.3251,0,U,41330,999,8050,0,-.44E-6,0
BEIDOU-2 IGSO-6 (C13),2016-021A,2026-06-11T23:38:37.367808,1.00260204,.00570767,60.2181,38.0924,231.5598,78.5171,0,U,41434,999,3742,0,-.157E-5,0
IRNSS-1G,2016-027A,2026-06-11T20:22:44.880384,1.00268750,.00075248,5.1850,97.5962,353.7288,244.1103,0,U,41469,999,3712,0,-.32E-5,0
GSAT0211 (GALILEO 14),2016-030A,2026-06-07T23:56:39.039648,1.70473969,.00027771,55.0982,221.9480,325.1627,34.9006,0,U,41549,999,6251,0,.43E-6,0
GSAT0210 (GALILEO 13),2016-030B,2026-06-11T18:35:13.501248,1.70473848,.00036864,55.0962,221.8419,237.6945,122.3623,0,U,41550,999,6257,0,.57E-6,0
BEIDOU-2 G7 (C03),2016-037A,2026-06-11T22:19:26.461632,1.00266769,.00069958,1.7056,69.2732,3.7827,272.5669,0,U,41586,999,683,0,-.337E-5,0
EUTELSAT 117 WEST B (WAAS/PRN 131),2016-038B,2026-06-11T16:06:35.726112,1.00274010,.00001811,0.0135,146.6761,266.2174,331.7735,0,U,41589,999,3660,0,.5E-7,0
GSAT0207 (GALILEO 15),2016-069A,2026-06-11T11:11:13.472160,1.70473579,.00053632,55.4954,101.2445,328.8179,31.1130,0,U,41859,999,5930,0,.9E-7,0
GSAT0212 (GALILEO 16),2016-069B,2026-06-10T03:30:48.933216,1.70473868,.00046789,55.4922,101.2762,355.7318,4.2331,0,U,41860,999,5953,0,.18E-6,0
GSAT0213 (GALILEO 17),2016-069C,2026-06-11T02:24:19.495296,1.70474163,.0005071,55.4950,101.2576,311.9600,47.9612,0,U,41861,999,5941,0,.12E-6,0
GSAT0214 (GALILEO 18),2016-069D,2026-06-08T21:36:08.572608,1.70473875,.0004328,55.4924,101.3112,318.2384,41.7019,0,U,41862,999,5950,0,.24E-6,0
SES-15 (WAAS/PRN 133),2017-026A,2026-06-08T12:46:06.263616,1.00270105,.00005164,0.0197,332.0701,88.0806,259.1449,0,U,42709,999,734,0,.76E-6,0
QZS-2 (QZSS/PRN 194),2017-028A,2026-06-09T12:56:43.810944,1.00285994,.07605811,39.4388,243.2674,269.1776,81.0235,0,U,42738,999,754,0,-.147E-5,0
QZS-3 (QZSS/PRN 199),2017-048A,2026-06-11T22:24:11.007072,1.00265517,.00024204,0.0258,186.9640,263.4602,272.8737,0,U,42917,999,3220,0,0,0
COSMOS 2522 (752),2017-055A,2026-06-10T02:01:05.325024,2.13102025,.00106792,64.0782,192.1263,240.0455,119.9210,0,U,42939,999,6782,0,.114E-5,0
QZS-4 (QZSS/PRN 195),2017-062A,2026-06-11T08:43:46.488864,1.00252284,.07452,40.1116,343.5575,271.6390,272.9173,0,U,42965,999,3174,0,-.318E-5,0
BEIDOU-3 M1 (C19),2017-069A,2026-06-10T03:39:44.209728,1.86231422,.00106003,56.6854,63.3171,324.5878,35.3649,0,U,43001,999,5847,0,-.5E-6,0
BEIDOU-3 M2 (C20),2017-069B,2026-06-11T03:57:56.500992,1.86230927,.0009248,56.6856,63.3198,349.7918,10.2118,0,U,43002,999,5848,0,-.53E-6,0
